{"type": "FeatureCollection", "features": [ {"type": "Feature", "properties": {"norad_id": 67141, "name": "KUIPER-00187", "group": "last-30-days", "lat": 24.038403440807915, "lon": 80.16275202593299, "alt_km": 455.43508399671737, "timestamp": "2025-12-26T07:29:17.197166+00:00", "meta": {"OBJECT_NAME": "KUIPER-00187", "OBJECT_ID": "2025-301J", "EPOCH": "2025-12-25T22:00:01.999584", "MEAN_MOTION": 15.35819131, "ECCENTRICITY": 0.00044512, "INCLINATION": 51.8713, "RA_OF_ASC_NODE": 61.5624, "ARG_OF_PERICENTER": 115.9009, "MEAN_ANOMALY": 248.3499, "EPHEMERIS_TYPE": 0, "CLASSIFICATION_TYPE": "U", "NORAD_CAT_ID": 67141, "ELEMENT_SET_NO": 999, "REV_AT_EPOCH": 218, "BSTAR": 0.00028608455, "MEAN_MOTION_DOT": 9.754e-05, "MEAN_MOTION_DDOT": 0}, "tle": {"line1": "1 67141U 25301J   25359.91668981  .00009754  00000+0  28608-3 0  9993", "line2": "2 67141  51.8713  61.5624 0004451 115.9009 248.3499 15.35819131  2186"}}, "geometry": {"type": "Point", "coordinates": [80.16275202593299, 24.038403440807915]}}, {"type": "Feature", "properties": {"norad_id": 67142, "name": "KUIPER-00188", "group": "last-30-days", "lat": -1.0584126098455222, "lon": 58.890137786988596, "alt_km": 465.77616782107907, "timestamp": "2025-12-26T07:29:17.197175+00:00", "meta": {"OBJECT_NAME": "KUIPER-00188", "OBJECT_ID": "2025-301K", "EPOCH": "2025-12-25T22:00:01.999584", "MEAN_MOTION": 15.34911498, "ECCENTRICITY": 0.00073791, "INCLINATION": 51.8695, "RA_OF_ASC_NODE": 61.627, "ARG_OF_PERICENTER": 134.7389, "MEAN_ANOMALY": 198.2882, "EPHEMERIS_TYPE": 0, "CLASSIFICATION_TYPE": "U", "NORAD_CAT_ID": 67142, "ELEMENT_SET_NO": 999, "REV_AT_EPOCH": 130, "BSTAR": 0.00022031155, "MEAN_MOTION_DOT": 7.202e-05, "MEAN_MOTION_DDOT": 0}, "tle": {"line1": "1 67142U 25301K   25359.91668981  .00007202  00000+0  22031-3 0  9994", "line2": "2 67142  51.8695  61.6270 0007379 134.7389 198.2882 15.34911498  1306"}}, "geometry": {"type": "Point", "coordinates": [58.890137786988596, -1.0584126098455222]}}, {"type": "Feature", "properties": {"norad_id": 67143, "name": "KUIPER-00191", "group": "last-30-days", "lat": 5.5739017703645315, "lon": 64.10209737203108, "alt_km": 463.17520688900004, "timestamp": "2025-12-26T07:29:17.197185+00:00", "meta": {"OBJECT_NAME": "KUIPER-00191", "OBJECT_ID": "2025-301L", "EPOCH": "2025-12-25T22:00:01.999584", "MEAN_MOTION": 15.35141234, "ECCENTRICITY": 0.00066966, "INCLINATION": 51.8674, "RA_OF_ASC_NODE": 61.6113, "ARG_OF_PERICENTER": 131.7849, "MEAN_ANOMALY": 209.358, "EPHEMERIS_TYPE": 0, "CLASSIFICATION_TYPE": "U", "NORAD_CAT_ID": 67143, "ELEMENT_SET_NO": 999, "REV_AT_EPOCH": 241, "BSTAR": 0.00023900058, "MEAN_MOTION_DOT": 7.906e-05, "MEAN_MOTION_DDOT": 0}, "tle": {"line1": "1 67143U 25301L   25359.91668981  .00007906  00000+0  23900-3 0  9992", "line2": "2 67143  51.8674  61.6113 0006696 131.7849 209.3580 15.35141234  2415"}}, "geometry": {"type": "Point", "coordinates": [64.10209737203108, 5.5739017703645315]}}, {"type": "Feature", "properties": {"norad_id": 67144, "name": "KUIPER-00196", "group": "last-30-days", "lat": 29.961532635278274, "lon": 86.55523383068928, "alt_km": 452.89732256321986, "timestamp": "2025-12-26T07:29:17.197195+00:00", "meta": {"OBJECT_NAME": "KUIPER-00196", "OBJECT_ID": "2025-301M", "EPOCH": "2025-12-25T22:00:01.999584", "MEAN_MOTION": 15.36019472, "ECCENTRICITY": 0.00039275, "INCLINATION": 51.8733, "RA_OF_ASC_NODE": 61.5432, "ARG_OF_PERICENTER": 101.6176, "MEAN_ANOMALY": 270.5544, "EPHEMERIS_TYPE": 0, "CLASSIFICATION_TYPE": "U", "NORAD_CAT_ID": 67144, "ELEMENT_SET_NO": 999, "REV_AT_EPOCH": 212, "BSTAR": 0.00029994043, "MEAN_MOTION_DOT": 0.00010313, "MEAN_MOTION_DDOT": 0}, "tle": {"line1": "1 67144U 25301M   25359.91668981  .00010313  00000+0  29994-3 0  9998", "line2": "2 67144  51.8733  61.5432 0003927 101.6176 270.5544 15.36019472  2125"}}, "geometry": {"type": "Point", "coordinates": [86.55523383068928, 29.961532635278274]}}, {"type": "Feature", "properties": {"norad_id": 67145, "name": "KUIPER-00204", "group": "last-30-days", "lat": 41.80392500612725, "lon": 104.20178680956435, "alt_km": 449.4307699786159, "timestamp": "2025-12-26T07:29:17.197205+00:00", "meta": {"OBJECT_NAME": "KUIPER-00204", "OBJECT_ID": "2025-301N", "EPOCH": "2025-12-25T22:00:01.999584", "MEAN_MOTION": 15.36531871, "ECCENTRICITY": 0.00019708, "INCLINATION": 51.8746, "RA_OF_ASC_NODE": 61.4998, "ARG_OF_PERICENTER": 77.0156, "MEAN_ANOMALY": 312.8961, "EPHEMERIS_TYPE": 0, "CLASSIFICATION_TYPE": "U", "NORAD_CAT_ID": 67145, "ELEMENT_SET_NO": 999, "REV_AT_EPOCH": 250, "BSTAR": 0.00036166684, "MEAN_MOTION_DOT": 0.0001273, "MEAN_MOTION_DDOT": 0}, "tle": {"line1": "1 67145U 25301N   25359.91668981  .00012730  00000+0  36167-3 0  9994", "line2": "2 67145  51.8746  61.4998 0001970  77.0156 312.8961 15.36531871  2503"}}, "geometry": {"type": "Point", "coordinates": [104.20178680956435, 41.80392500612725]}}, {"type": "Feature", "properties": {"norad_id": 67146, "name": "KUIPER-00210", "group": "last-30-days", "lat": -22.65966160176875, "lon": 40.62758125730385, "alt_km": 473.78886339632663, "timestamp": "2025-12-26T07:29:17.197216+00:00", "meta": {"OBJECT_NAME": "KUIPER-00210", "OBJECT_ID": "2025-301P", "EPOCH": "2025-12-25T22:00:01.999584", "MEAN_MOTION": 15.34155631, "ECCENTRICITY": 0.00105357, "INCLINATION": 51.86, "RA_OF_ASC_NODE": 61.6816, "ARG_OF_PERICENTER": 149.0517, "MEAN_ANOMALY": 156.9944, "EPHEMERIS_TYPE": 0, "CLASSIFICATION_TYPE": "U", "NORAD_CAT_ID": 67146, "ELEMENT_SET_NO": 999, "REV_AT_EPOCH": 255, "BSTAR": 0.00016024771, "MEAN_MOTION_DOT": 5.007e-05, "MEAN_MOTION_DDOT": 0}, "tle": {"line1": "1 67146U 25301P   25359.91668981  .00005007  00000+0  16025-3 0  9995", "line2": "2 67146  51.8600  61.6816 0010535 149.0517 156.9944 15.34155631  2559"}}, "geometry": {"type": "Point", "coordinates": [40.62758125730385, -22.65966160176875]}}, {"type": "Feature", "properties": {"norad_id": 67147, "name": "KUIPER-00221", "group": "last-30-days", "lat": 21.536375545785507, "lon": 77.71779370149996, "alt_km": 456.10414335041605, "timestamp": "2025-12-26T07:29:17.197228+00:00", "meta": {"OBJECT_NAME": "KUIPER-00221", "OBJECT_ID": "2025-301Q", "EPOCH": "2025-12-25T22:00:01.999584", "MEAN_MOTION": 15.35722801, "ECCENTRICITY": 0.00051064, "INCLINATION": 51.872, "RA_OF_ASC_NODE": 61.5679, "ARG_OF_PERICENTER": 112.7419, "MEAN_ANOMALY": 248.286, "EPHEMERIS_TYPE": 0, "CLASSIFICATION_TYPE": "U", "NORAD_CAT_ID": 67147, "ELEMENT_SET_NO": 999, "REV_AT_EPOCH": 187, "BSTAR": 0.00027856071, "MEAN_MOTION_DOT": 9.457e-05, "MEAN_MOTION_DDOT": 0}, "tle": {"line1": "1 67147U 25301Q   25359.91668981  .00009457  00000+0  27856-3 0  9993", "line2": "2 67147  51.8720  61.5679 0005106 112.7419 248.2860 15.35722801  1871"}}, "geometry": {"type": "Point", "coordinates": [77.71779370149996, 21.536375545785507]}}, {"type": "Feature", "properties": {"norad_id": 67148, "name": "KUIPER-00232", "group": "last-30-days", "lat": 45.10285399281406, "lon": 111.59898450895868, "alt_km": 448.6833105764108, "timestamp": "2025-12-26T07:29:17.197238+00:00", "meta": {"OBJECT_NAME": "KUIPER-00232", "OBJECT_ID": "2025-301R", "EPOCH": "2025-12-25T22:00:01.999584", "MEAN_MOTION": 15.36693668, "ECCENTRICITY": 0.00015407, "INCLINATION": 51.8744, "RA_OF_ASC_NODE": 61.4915, "ARG_OF_PERICENTER": 51.6495, "MEAN_ANOMALY": 344.3151, "EPHEMERIS_TYPE": 0, "CLASSIFICATION_TYPE": "U", "NORAD_CAT_ID": 67148, "ELEMENT_SET_NO": 999, "REV_AT_EPOCH": 227, "BSTAR": 0.00035954579, "MEAN_MOTION_DOT": 0.00012721, "MEAN_MOTION_DDOT": 0}, "tle": {"line1": "1 67148U 25301R   25359.91668981  .00012721  00000+0  35955-3 0  9991", "line2": "2 67148  51.8744  61.4915 0001540  51.6495 344.3151 15.36693668  2278"}}, "geometry": {"type": "Point", "coordinates": [111.59898450895868, 45.10285399281406]}}, {"type": "Feature", "properties": {"norad_id": 67149, "name": "KUIPER-00241", "group": "last-30-days", "lat": 35.128788686037744, "lon": 93.15826039501277, "alt_km": 451.43301639560104, "timestamp": "2025-12-26T07:29:17.197248+00:00", "meta": {"OBJECT_NAME": "KUIPER-00241", "OBJECT_ID": "2025-301S", "EPOCH": "2025-12-25T22:00:01.999584", "MEAN_MOTION": 15.36239494, "ECCENTRICITY": 0.0002907, "INCLINATION": 51.8744, "RA_OF_ASC_NODE": 61.5243, "ARG_OF_PERICENTER": 99.3733, "MEAN_ANOMALY": 280.0657, "EPHEMERIS_TYPE": 0, "CLASSIFICATION_TYPE": "U", "NORAD_CAT_ID": 67149, "ELEMENT_SET_NO": 999, "REV_AT_EPOCH": 272, "BSTAR": 0.00031250965, "MEAN_MOTION_DOT": 0.0001084, "MEAN_MOTION_DDOT": 0}, "tle": {"line1": "1 67149U 25301S   25359.91668981  .00010840  00000+0  31251-3 0  9997", "line2": "2 67149  51.8744  61.5243 0002907  99.3733 280.0657 15.36239494  2726"}}, "geometry": {"type": "Point", "coordinates": [93.15826039501277, 35.128788686037744]}}, {"type": "Feature", "properties": {"norad_id": 67150, "name": "KUIPER-00245", "group": "last-30-days", "lat": 19.021768511488375, "lon": 75.37648920167088, "alt_km": 457.4923742838664, "timestamp": "2025-12-26T07:29:17.197261+00:00", "meta": {"OBJECT_NAME": "KUIPER-00245", "OBJECT_ID": "2025-301T", "EPOCH": "2025-12-25T22:00:01.999584", "MEAN_MOTION": 15.35626942, "ECCENTRICITY": 0.00051078, "INCLINATION": 51.8728, "RA_OF_ASC_NODE": 61.5733, "ARG_OF_PERICENTER": 120.9627, "MEAN_ANOMALY": 236.8627, "EPHEMERIS_TYPE": 0, "CLASSIFICATION_TYPE": "U", "NORAD_CAT_ID": 67150, "ELEMENT_SET_NO": 999, "REV_AT_EPOCH": 187, "BSTAR": 0.00026303874, "MEAN_MOTION_DOT": 8.88e-05, "MEAN_MOTION_DDOT": 0}, "tle": {"line1": "1 67150U 25301T   25359.91668981  .00008880  00000+0  26304-3 0  9993", "line2": "2 67150  51.8728  61.5733 0005107 120.9627 236.8627 15.35626942  1870"}}, "geometry": {"type": "Point", "coordinates": [75.37648920167088, 19.021768511488375]}}]}